{"fetched_at":"2026-03-29T02:12:04Z","count":15717,"tles":[{"name":"GSAT0211 (GALILEO 14)","line1":"1 41549U 16030A   26086.84781407 -.00000015  00000+0  00000+0 0  9999","line2":"2 41549  55.1222 223.9297 0003027  18.1834 341.7749  1.70473902 61288","category":"GPS"}]}