{
  "norad_id": 41549,
  "name": "GSAT0211 (GALILEO 14)",
  "history": [
    {
      "epoch": "2026-03-27T20:20:51.135648",
      "apogee_km": 23231.15560607805,
      "perigee_km": 23213.233197420923,
      "latitude_deg": 41.91960192782252,
      "longitude_deg": 120.29015071992762,
      "semi_major_axis_km": 29600.331401749485,
      "eccentricity": 0.00030274,
      "inclination_deg": 55.1222,
      "raan_deg": 223.9297,
      "arg_perigee_deg": 18.1834,
      "mean_anomaly_deg": 341.7749,
      "mean_motion_rev_day": 1.70473902
    }
  ]
}